CZ-2C R/B               
1 54039U 22132E   25342.93765005  .00039045  00000+0  58652-3 0  9991
2 54039  97.2947 339.0640 0023486  69.5478 290.8295 15.54457630176243
GSLV R/B                
1 54149U 22138AN  25342.84267263  .00004078  00000+0  35831-3 0  9994
2 54149  87.3826 196.7793 0023862 118.4087 241.9553 14.96101764170344
XRISM                   
1 57800U 23137A   25342.86887918  .00006285  00000+0  36864-3 0  9997
2 57800  31.0004 150.5348 0007686 206.2287 153.7962 15.10278587124048
ACS3                    
1 59588U 24077B   25342.85385226  .00040832  00000+0  34988-1 0  9999
2 59588  97.2718 299.3276 0077914 347.2520  12.6669 13.85213316 81608
SZ-21 MODULE            
1 66515U 25246C   25342.51202554  .00030446  00000+0  33876-3 0  9998
2 66515  41.4773  41.8306 0006238 236.9164 123.1077 15.62178331  3789
